CSS (TIANHE)            
1 48274U 21035A   24226.65803686  .00078159  00000+0  91613-3 0  9996
2 48274  41.4696  92.8223 0001513 233.8240 163.1338 15.60519456188087
